{"type": "FeatureCollection", "features": [ {"type": "Feature", "properties": {"norad_id": 35060, "name": "COSMOS 2251 DEB", "group": "cosmos-2251-debris", "lat": -68.66763936710427, "lon": 84.74687434400914, "alt_km": 750.5027073057972, "timestamp": "2025-12-27T03:58:44.542654+00:00", "meta": {"OBJECT_NAME": "COSMOS 2251 DEB", "OBJECT_ID": "1993-036AHP", "EPOCH": "2025-12-23T23:50:58.864704", "MEAN_MOTION": 14.416228, "ECCENTRICITY": 0.00187381, "INCLINATION": 74.0364, "RA_OF_ASC_NODE": 223.4863, "ARG_OF_PERICENTER": 306.8479, "MEAN_ANOMALY": 53.0958, "EPHEMERIS_TYPE": 0, "CLASSIFICATION_TYPE": "U", "NORAD_CAT_ID": 35060, "ELEMENT_SET_NO": 999, "REV_AT_EPOCH": 87404, "BSTAR": 0.0002601881, "MEAN_MOTION_DOT": 8.22e-06, "MEAN_MOTION_DDOT": 0}, "tle": {"line1": "1 35060U 93036AHP 25357.99373686  .00000822  00000+0  26019-3 0  9990", "line2": "2 35060  74.0364 223.4863 0018738 306.8479  53.0958 14.41622800874043"}}, "geometry": {"type": "Point", "coordinates": [84.74687434400914, -68.66763936710427]}}, {"type": "Feature", "properties": {"norad_id": 35061, "name": "COSMOS 2251 DEB", "group": "cosmos-2251-debris", "lat": 59.13207495967107, "lon": -53.54213857605136, "alt_km": 639.5874825303326, "timestamp": "2025-12-27T03:58:44.542663+00:00", "meta": {"OBJECT_NAME": "COSMOS 2251 DEB", "OBJECT_ID": "1993-036AHQ", "EPOCH": "2025-12-25T12:26:22.141248", "MEAN_MOTION": 14.67934015, "ECCENTRICITY": 0.003974, "INCLINATION": 74.0461, "RA_OF_ASC_NODE": 281.0451, "ARG_OF_PERICENTER": 28.402, "MEAN_ANOMALY": 331.9304, "EPHEMERIS_TYPE": 0, "CLASSIFICATION_TYPE": "U", "NORAD_CAT_ID": 35061, "ELEMENT_SET_NO": 999, "REV_AT_EPOCH": 88762, "BSTAR": 0.00083709, "MEAN_MOTION_DOT": 4.819e-05, "MEAN_MOTION_DDOT": 0}, "tle": {"line1": "1 35061U 93036AHQ 25359.51831182  .00004819  00000+0  83709-3 0  9990", "line2": "2 35061  74.0461 281.0451 0039740  28.4020 331.9304 14.67934015887623"}}, "geometry": {"type": "Point", "coordinates": [-53.54213857605136, 59.13207495967107]}}, {"type": "Feature", "properties": {"norad_id": 35062, "name": "COSMOS 2251 DEB", "group": "cosmos-2251-debris", "lat": -48.83403111653163, "lon": 48.32481904287935, "alt_km": 857.6056855717088, "timestamp": "2025-12-27T03:58:44.542672+00:00", "meta": {"OBJECT_NAME": "COSMOS 2251 DEB", "OBJECT_ID": "1993-036AHR", "EPOCH": "2025-12-26T14:43:22.526688", "MEAN_MOTION": 14.23039203, "ECCENTRICITY": 0.0125886, "INCLINATION": 74.0786, "RA_OF_ASC_NODE": 68.3684, "ARG_OF_PERICENTER": 63.7806, "MEAN_ANOMALY": 297.6217, "EPHEMERIS_TYPE": 0, "CLASSIFICATION_TYPE": "U", "NORAD_CAT_ID": 35062, "ELEMENT_SET_NO": 999, "REV_AT_EPOCH": 85696, "BSTAR": 0.0014828, "MEAN_MOTION_DOT": 3.603e-05, "MEAN_MOTION_DDOT": 0}, "tle": {"line1": "1 35062U 93036AHR 25360.61345517  .00003603  00000+0  14828-2 0  9991", "line2": "2 35062  74.0786  68.3684 0125886  63.7806 297.6217 14.23039203856960"}}, "geometry": {"type": "Point", "coordinates": [48.32481904287935, -48.83403111653163]}}, {"type": "Feature", "properties": {"norad_id": 35065, "name": "COSMOS 2251 DEB", "group": "cosmos-2251-debris", "lat": 72.22633945067258, "lon": -75.98224818802497, "alt_km": 746.3530323938994, "timestamp": "2025-12-27T03:58:44.542682+00:00", "meta": {"OBJECT_NAME": "COSMOS 2251 DEB", "OBJECT_ID": "1993-036AHU", "EPOCH": "2025-12-26T10:55:13.836864", "MEAN_MOTION": 14.45764248, "ECCENTRICITY": 0.0020358, "INCLINATION": 74.0178, "RA_OF_ASC_NODE": 168.7315, "ARG_OF_PERICENTER": 291.8587, "MEAN_ANOMALY": 68.0405, "EPHEMERIS_TYPE": 0, "CLASSIFICATION_TYPE": "U", "NORAD_CAT_ID": 35065, "ELEMENT_SET_NO": 999, "REV_AT_EPOCH": 68549, "BSTAR": 0.00042895, "MEAN_MOTION_DOT": 1.498e-05, "MEAN_MOTION_DDOT": 0}, "tle": {"line1": "1 35065U 93036AHU 25360.45502126  .00001498  00000+0  42895-3 0  9993", "line2": "2 35065  74.0178 168.7315 0020358 291.8587  68.0405 14.45764248685497"}}, "geometry": {"type": "Point", "coordinates": [-75.98224818802497, 72.22633945067258]}}, {"type": "Feature", "properties": {"norad_id": 35071, "name": "COSMOS 2251 DEB", "group": "cosmos-2251-debris", "lat": 70.76092993144952, "lon": -160.56053516661166, "alt_km": 513.5457186181102, "timestamp": "2025-12-27T03:58:44.542691+00:00", "meta": {"OBJECT_NAME": "COSMOS 2251 DEB", "OBJECT_ID": "1993-036AJA", "EPOCH": "2025-12-26T16:27:19.016064", "MEAN_MOTION": 15.03721879, "ECCENTRICITY": 0.0068527, "INCLINATION": 73.9326, "RA_OF_ASC_NODE": 144.7538, "ARG_OF_PERICENTER": 36.9661, "MEAN_ANOMALY": 323.6219, "EPHEMERIS_TYPE": 0, "CLASSIFICATION_TYPE": "U", "NORAD_CAT_ID": 35071, "ELEMENT_SET_NO": 999, "REV_AT_EPOCH": 67746, "BSTAR": 0.000788, "MEAN_MOTION_DOT": 0.00011358, "MEAN_MOTION_DDOT": 0}, "tle": {"line1": "1 35071U 93036AJA 25360.68563676  .00011358  00000+0  78800-3 0  9993", "line2": "2 35071  73.9326 144.7538 0068527  36.9661 323.6219 15.03721879677468"}}, "geometry": {"type": "Point", "coordinates": [-160.56053516661166, 70.76092993144952]}}, {"type": "Feature", "properties": {"norad_id": 35073, "name": "COSMOS 2251 DEB", "group": "cosmos-2251-debris", "lat": 55.53966313627149, "lon": -34.14299981740807, "alt_km": 548.2971601284262, "timestamp": "2025-12-27T03:58:44.542700+00:00", "meta": {"OBJECT_NAME": "COSMOS 2251 DEB", "OBJECT_ID": "1993-036AJC", "EPOCH": "2025-12-26T13:19:39.449280", "MEAN_MOTION": 15.01663707, "ECCENTRICITY": 0.0011423, "INCLINATION": 74.0005, "RA_OF_ASC_NODE": 302.3878, "ARG_OF_PERICENTER": 45.8819, "MEAN_ANOMALY": 314.3306, "EPHEMERIS_TYPE": 0, "CLASSIFICATION_TYPE": "U", "NORAD_CAT_ID": 35073, "ELEMENT_SET_NO": 999, "REV_AT_EPOCH": 67686, "BSTAR": 0.0034127, "MEAN_MOTION_DOT": 0.00044647, "MEAN_MOTION_DDOT": 0}, "tle": {"line1": "1 35073U 93036AJC 25360.55531770  .00044647  00000+0  34127-2 0  9991", "line2": "2 35073  74.0005 302.3878 0011423  45.8819 314.3306 15.01663707676862"}}, "geometry": {"type": "Point", "coordinates": [-34.14299981740807, 55.53966313627149]}}, {"type": "Feature", "properties": {"norad_id": 35284, "name": "COSMOS 2251 DEB", "group": "cosmos-2251-debris", "lat": 50.10632292540833, "lon": 37.85455466805777, "alt_km": 771.3327514059665, "timestamp": "2025-12-27T03:58:44.542709+00:00", "meta": {"OBJECT_NAME": "COSMOS 2251 DEB", "OBJECT_ID": "1993-036AJN", "EPOCH": "2025-12-26T15:50:56.704128", "MEAN_MOTION": 14.38332344, "ECCENTRICITY": 0.0017235, "INCLINATION": 74.0481, "RA_OF_ASC_NODE": 238.7931, "ARG_OF_PERICENTER": 313.4165, "MEAN_ANOMALY": 77.5805, "EPHEMERIS_TYPE": 0, "CLASSIFICATION_TYPE": "U", "NORAD_CAT_ID": 35284, "ELEMENT_SET_NO": 999, "REV_AT_EPOCH": 65726, "BSTAR": 0.00015481, "MEAN_MOTION_DOT": 4.46e-06, "MEAN_MOTION_DDOT": 0}, "tle": {"line1": "1 35284U 93036AJN 25360.66037852  .00000446  00000+0  15481-3 0  9991", "line2": "2 35284  74.0481 238.7931 0017235 313.4165  77.5805 14.38332344657265"}}, "geometry": {"type": "Point", "coordinates": [37.85455466805777, 50.10632292540833]}}, {"type": "Feature", "properties": {"norad_id": 35287, "name": "COSMOS 2251 DEB", "group": "cosmos-2251-debris", "lat": -20.935606242110044, "lon": 75.91795422079339, "alt_km": 785.5045391941776, "timestamp": "2025-12-27T03:58:44.542719+00:00", "meta": {"OBJECT_NAME": "COSMOS 2251 DEB", "OBJECT_ID": "1993-036AJR", "EPOCH": "2025-12-26T11:11:15.829152", "MEAN_MOTION": 14.36387455, "ECCENTRICITY": 0.0018158, "INCLINATION": 74.0297, "RA_OF_ASC_NODE": 250.9133, "ARG_OF_PERICENTER": 344.6887, "MEAN_ANOMALY": 200.7795, "EPHEMERIS_TYPE": 0, "CLASSIFICATION_TYPE": "U", "NORAD_CAT_ID": 35287, "ELEMENT_SET_NO": 999, "REV_AT_EPOCH": 87089, "BSTAR": 0.00012553, "MEAN_MOTION_DOT": 3.42e-06, "MEAN_MOTION_DDOT": 0}, "tle": {"line1": "1 35287U 93036AJR 25360.46615543  .00000342  00000+0  12553-3 0  9993", "line2": "2 35287  74.0297 250.9133 0018158 344.6887 200.7795 14.36387455870890"}}, "geometry": {"type": "Point", "coordinates": [75.91795422079339, -20.935606242110044]}}, {"type": "Feature", "properties": {"norad_id": 35288, "name": "COSMOS 2251 DEB", "group": "cosmos-2251-debris", "lat": 60.30640951057129, "lon": 17.57637105580794, "alt_km": 693.5643957597313, "timestamp": "2025-12-27T03:58:44.542728+00:00", "meta": {"OBJECT_NAME": "COSMOS 2251 DEB", "OBJECT_ID": "1993-036AJS", "EPOCH": "2025-12-23T06:18:10.717920", "MEAN_MOTION": 14.65565205, "ECCENTRICITY": 0.0039069, "INCLINATION": 73.9499, "RA_OF_ASC_NODE": 354.8064, "ARG_OF_PERICENTER": 226.8245, "MEAN_ANOMALY": 132.9657, "EPHEMERIS_TYPE": 0, "CLASSIFICATION_TYPE": "U", "NORAD_CAT_ID": 35288, "ELEMENT_SET_NO": 999, "REV_AT_EPOCH": 88032, "BSTAR": 0.0011220049, "MEAN_MOTION_DOT": 6.131e-05, "MEAN_MOTION_DDOT": 0}, "tle": {"line1": "1 35288U 93036AJS 25357.26262405  .00006131  00000+0  11220-2 0  9994", "line2": "2 35288  73.9499 354.8064 0039069 226.8245 132.9657 14.65565205880328"}}, "geometry": {"type": "Point", "coordinates": [17.57637105580794, 60.30640951057129]}}, {"type": "Feature", "properties": {"norad_id": 35290, "name": "COSMOS 2251 DEB", "group": "cosmos-2251-debris", "lat": 41.888873129845024, "lon": 45.84895440582477, "alt_km": 623.833982244827, "timestamp": "2025-12-27T03:58:44.542737+00:00", "meta": {"OBJECT_NAME": "COSMOS 2251 DEB", "OBJECT_ID": "1993-036AJU", "EPOCH": "2025-12-24T09:17:55.218624", "MEAN_MOTION": 14.80672096, "ECCENTRICITY": 0.00012182, "INCLINATION": 74.005, "RA_OF_ASC_NODE": 36.4274, "ARG_OF_PERICENTER": 184.9871, "MEAN_ANOMALY": 175.1294, "EPHEMERIS_TYPE": 0, "CLASSIFICATION_TYPE": "U", "NORAD_CAT_ID": 35290, "ELEMENT_SET_NO": 999, "REV_AT_EPOCH": 88130, "BSTAR": 0.0018442179, "MEAN_MOTION_DOT": 0.00014174, "MEAN_MOTION_DDOT": 0}, "tle": {"line1": "1 35290U 93036AJU 25358.38744466  .00014174  00000+0  18442-2 0  9992", "line2": "2 35290  74.0050  36.4274 0001218 184.9871 175.1294 14.80672096881305"}}, "geometry": {"type": "Point", "coordinates": [45.84895440582477, 41.888873129845024]}}]}